{
  "type": "FeatureCollection",
  "features": [
    {
      "type": "Feature",
      "properties": {
        "norad_id": 43603,
        "name": "BEIDOU-3 M11 (C25)",
        "group": "beidou",
        "lat": -6.92421493788524,
        "lon": -177.38486263020422,
        "alt_km": 21518.53522395877,
        "timestamp": "2025-12-03T13:52:09.826819+00:00",
        "meta_object_name": "BEIDOU-3 M11 (C25)",
        "meta_object_id": "2018-067B",
        "meta_epoch": "2025-12-03T01:17:17.813760",
        "meta_mean_motion": 1.86227127,
        "meta_eccentricity": 0.00055672,
        "meta_inclination": 54.1805,
        "meta_ra_of_asc_node": 187.6562,
        "meta_arg_of_pericenter": 36.1589,
        "meta_mean_anomaly": 323.9732,
        "meta_ephemeris_type": 0,
        "meta_classification_type": "U",
        "meta_norad_cat_id": 43603,
        "meta_element_set_no": 999,
        "meta_rev_at_epoch": 4949,
        "meta_bstar": 0,
        "meta_mean_motion_dot": 1.19e-06,
        "meta_mean_motion_ddot": 0,
        "tle_line1": "1 43603U 18067B   25337.05367840  .00000119  00000+0  00000+0 0  9990",
        "tle_line2": "2 43603  54.1805 187.6562 0005567  36.1589 323.9732  1.86227127 49492"
      },
      "geometry": {
        "type": "Point",
        "coordinates": [
          -177.38486263020422,
          -6.92421493788524
        ]
      }
    },
    {
      "type": "Feature",
      "properties": {
        "norad_id": 43622,
        "name": "BEIDOU-3 M13 (C32)",
        "group": "beidou",
        "lat": 17.072880116907715,
        "lon": 80.86558269248039,
        "alt_km": 21523.913363291806,
        "timestamp": "2025-12-03T13:52:09.826830+00:00",
        "meta_object_name": "BEIDOU-3 M13 (C32)",
        "meta_object_id": "2018-072A",
        "meta_epoch": "2025-12-01T22:28:14.583360",
        "meta_mean_motion": 1.8623073,
        "meta_eccentricity": 0.00055911,
        "meta_inclination": 56.4497,
        "meta_ra_of_asc_node": 69.1783,
        "meta_arg_of_pericenter": 298.7186,
        "meta_mean_anomaly": 61.2282,
        "meta_ephemeris_type": 0,
        "meta_classification_type": "U",
        "meta_norad_cat_id": 43622,
        "meta_element_set_no": 999,
        "meta_rev_at_epoch": 4898,
        "meta_bstar": 0,
        "meta_mean_motion_dot": -4.4e-07,
        "meta_mean_motion_ddot": 0,
        "tle_line1": "1 43622U 18072A   25335.93627990 -.00000044  00000+0  00000+0 0  9995",
        "tle_line2": "2 43622  56.4497  69.1783 0005591 298.7186  61.2282  1.86230730 48989"
      },
      "geometry": {
        "type": "Point",
        "coordinates": [
          80.86558269248039,
          17.072880116907715
        ]
      }
    },
    {
      "type": "Feature",
      "properties": {
        "norad_id": 43623,
        "name": "BEIDOU-3 M14 (C33)",
        "group": "beidou",
        "lat": 51.173299298806654,
        "lon": -166.2852329669448,
        "alt_km": 21528.10514883067,
        "timestamp": "2025-12-03T13:52:09.826841+00:00",
        "meta_object_name": "BEIDOU-3 M14 (C33)",
        "meta_object_id": "2018-072B",
        "meta_epoch": "2025-12-01T19:14:30.937344",
        "meta_mean_motion": 1.86230707,
        "meta_eccentricity": 0.00030488,
        "meta_inclination": 56.4513,
        "meta_ra_of_asc_node": 69.1766,
        "meta_arg_of_pericenter": 335.7773,
        "meta_mean_anomaly": 24.2115,
        "meta_ephemeris_type": 0,
        "meta_classification_type": "U",
        "meta_norad_cat_id": 43623,
        "meta_element_set_no": 999,
        "meta_rev_at_epoch": 4897,
        "meta_bstar": 0,
        "meta_mean_motion_dot": -4.3e-07,
        "meta_mean_motion_ddot": 0,
        "tle_line1": "1 43623U 18072B   25335.80174696 -.00000043  00000+0  00000+0 0  9991",
        "tle_line2": "2 43623  56.4513  69.1766 0003048 335.7773  24.2115  1.86230707 48976"
      },
      "geometry": {
        "type": "Point",
        "coordinates": [
          -166.2852329669448,
          51.173299298806654
        ]
      }
    },
    {
      "type": "Feature",
      "properties": {
        "norad_id": 43647,
        "name": "BEIDOU-3 M16 (C35)",
        "group": "beidou",
        "lat": 3.984870659361058,
        "lon": -50.30694895423364,
        "alt_km": 21508.792042201898,
        "timestamp": "2025-12-03T13:52:09.826853+00:00",
        "meta_object_name": "BEIDOU-3 M16 (C35)",
        "meta_object_id": "2018-078A",
        "meta_epoch": "2025-12-03T00:48:25.625088",
        "meta_mean_motion": 1.86232114,
        "meta_eccentricity": 0.00069753,
        "meta_inclination": 54.271,
        "meta_ra_of_asc_node": 306.8606,
        "meta_arg_of_pericenter": 18.45,
        "meta_mean_anomaly": 341.5609,
        "meta_ephemeris_type": 0,
        "meta_classification_type": "U",
        "meta_norad_cat_id": 43647,
        "meta_element_set_no": 999,
        "meta_rev_at_epoch": 4850,
        "meta_bstar": 0,
        "meta_mean_motion_dot": -6.5e-07,
        "meta_mean_motion_ddot": 0,
        "tle_line1": "1 43647U 18078A   25337.03362992 -.00000065  00000+0  00000+0 0  9992",
        "tle_line2": "2 43647  54.2710 306.8606 0006975  18.4500 341.5609  1.86232114 48502"
      },
      "geometry": {
        "type": "Point",
        "coordinates": [
          -50.30694895423364,
          3.984870659361058
        ]
      }
    },
    {
      "type": "Feature",
      "properties": {
        "norad_id": 43648,
        "name": "BEIDOU-3 M15 (C34)",
        "group": "beidou",
        "lat": -53.441115925296124,
        "lon": -129.21164794824813,
        "alt_km": 21535.22562204981,
        "timestamp": "2025-12-03T13:52:09.826864+00:00",
        "meta_object_name": "BEIDOU-3 M15 (C34)",
        "meta_object_id": "2018-078B",
        "meta_epoch": "2025-12-01T00:21:40.976640",
        "meta_mean_motion": 1.86232,
        "meta_eccentricity": 0.0003569,
        "meta_inclination": 54.2686,
        "meta_ra_of_asc_node": 306.9322,
        "meta_arg_of_pericenter": 17.0419,
        "meta_mean_anomaly": 342.9634,
        "meta_ephemeris_type": 0,
        "meta_classification_type": "U",
        "meta_norad_cat_id": 43648,
        "meta_element_set_no": 999,
        "meta_rev_at_epoch": 4848,
        "meta_bstar": 0,
        "meta_mean_motion_dot": -5.6e-07,
        "meta_mean_motion_ddot": 0,
        "tle_line1": "1 43648U 18078B   25335.01505760 -.00000056  00000+0  00000+0 0  9991",
        "tle_line2": "2 43648  54.2686 306.9322 0003569  17.0419 342.9634  1.86232000 48485"
      },
      "geometry": {
        "type": "Point",
        "coordinates": [
          -129.21164794824813,
          -53.441115925296124
        ]
      }
    },
    {
      "type": "Feature",
      "properties": {
        "norad_id": 43683,
        "name": "BEIDOU-3 G1 (C59)",
        "group": "beidou",
        "lat": -1.7188736089879062,
        "lon": 60.728688838981796,
        "alt_km": 35788.16341140457,
        "timestamp": "2025-12-03T13:52:09.826876+00:00",
        "meta_object_name": "BEIDOU-3 G1 (C59)",
        "meta_object_id": "2018-085A",
        "meta_epoch": "2025-12-03T07:34:26.251104",
        "meta_mean_motion": 1.00273699,
        "meta_eccentricity": 0.00020643,
        "meta_inclination": 2.5821,
        "meta_ra_of_asc_node": 103.2494,
        "meta_arg_of_pericenter": 63.1723,
        "meta_mean_anomaly": 159.6308,
        "meta_ephemeris_type": 0,
        "meta_classification_type": "U",
        "meta_norad_cat_id": 43683,
        "meta_element_set_no": 999,
        "meta_rev_at_epoch": 2609,
        "meta_bstar": 0,
        "meta_mean_motion_dot": -2.59e-06,
        "meta_mean_motion_ddot": 0,
        "tle_line1": "1 43683U 18085A   25337.31558161 -.00000259  00000+0  00000+0 0  9991",
        "tle_line2": "2 43683   2.5821 103.2494 0002064  63.1723 159.6308  1.00273699 26097"
      },
      "geometry": {
        "type": "Point",
        "coordinates": [
          60.728688838981796,
          -1.7188736089879062
        ]
      }
    },
    {
      "type": "Feature",
      "properties": {
        "norad_id": 43706,
        "name": "BEIDOU-3 M17 (C36)",
        "group": "beidou",
        "lat": 6.50061724195264,
        "lon": 4.22039285690661,
        "alt_km": 21540.09743202395,
        "timestamp": "2025-12-03T13:52:09.826887+00:00",
        "meta_object_name": "BEIDOU-3 M17 (C36)",
        "meta_object_id": "2018-093A",
        "meta_epoch": "2025-12-03T01:24:08.978400",
        "meta_mean_motion": 1.86228152,
        "meta_eccentricity": 0.00063526,
        "meta_inclination": 54.1727,
        "meta_ra_of_asc_node": 188.9508,
        "meta_arg_of_pericenter": 306.258,
        "meta_mean_anomaly": 237.5457,
        "meta_ephemeris_type": 0,
        "meta_classification_type": "U",
        "meta_norad_cat_id": 43706,
        "meta_element_set_no": 999,
        "meta_rev_at_epoch": 4788,
        "meta_bstar": 0,
        "meta_mean_motion_dot": 1.18e-06,
        "meta_mean_motion_ddot": 0,
        "tle_line1": "1 43706U 18093A   25337.05843725  .00000118  00000+0  00000+0 0  9993",
        "tle_line2": "2 43706  54.1727 188.9508 0006352 306.2580 237.5457  1.86228152 47882"
      },
      "geometry": {
        "type": "Point",
        "coordinates": [
          4.22039285690661,
          6.50061724195264
        ]
      }
    }
  ]
}